ONEWEB-0053             
1 45157U 20008AC  24095.84311712 -.00000708  00000+0 -20677-2 0  9999
2 45157  87.8996 195.9224 0002001 101.4694 258.6658 13.10265514202700
ONEWEB-0054             
1 45158U 20008AD  24095.80199530  .00000729  00000+0  20512-2 0  9997
2 45158  87.8994 195.9136 0001932 107.7831 252.3507 13.10434230202814
ONEWEB-0056             
1 45159U 20008AE  24095.78321194 -.00000133  00000+0 -41958-3 0  9997
2 45159  87.8999 195.9128 0001928  99.1200 261.0145 13.10199829202963
ONEWEB-0057             
1 45160U 20008AF  24095.78978971  .00000242  00000+0  65894-3 0  9994
2 45160  87.9001 195.9101 0001773 102.7613 257.3713 13.10173961203136
ONEWEB-0058             
1 45161U 20008AG  24095.77677865 -.00000400  00000+0 -11855-2 0  9997
2 45161  87.8991 195.9529 0001742 106.6913 253.4406 13.10223673203200
ONEWEB-0059             
1 45162U 20008AH  24095.77333002 -.00000559  00000+0 -16422-2 0  9990
2 45162  87.8998 195.9299 0001844 110.4231 249.7094 13.10238004203105
ONEWEB-0062             
1 45163U 20008AJ  24095.80029183 -.00001372  00000+0 -39623-2 0  9999
2 45163  87.9004 195.9084 0002102 106.0398 254.0961 13.10445298202971
ONEWEB-0065             
1 45164U 20008AK  24095.77825948 -.00000358  00000+0 -10634-2 0  9993
2 45164  87.9002 195.9174 0001933 100.0306 260.1039 13.10222685202667
